[{"OBJECT_NAME":"STARLINK-6301","OBJECT_ID":"2023-061U","EPOCH":"2026-03-09T22:00:01.999584","MEAN_MOTION":15.05910777,"ECCENTRICITY":0.00022995,"INCLINATION":43.0006,"RA_OF_ASC_NODE":183.7483,"ARG_OF_PERICENTER":264.0078,"MEAN_ANOMALY":68.1316,"EPHEMERIS_TYPE":0,"CLASSIFICATION_TYPE":"U","NORAD_CAT_ID":56392,"ELEMENT_SET_NO":999,"REV_AT_EPOCH":577,"BSTAR":0.0016398394,"MEAN_MOTION_DOT":0.00024118,"MEAN_MOTION_DDOT":0},{"OBJECT_NAME":"COSMOS 2251 DEB","OBJECT_ID":"1993-036ACA","EPOCH":"2026-03-09T23:22:42.926880","MEAN_MOTION":15.11397769,"ECCENTRICITY":0.00294457,"INCLINATION":73.9915,"RA_OF_ASC_NODE":264.707,"ARG_OF_PERICENTER":17.2418,"MEAN_ANOMALY":133.9216,"EPHEMERIS_TYPE":0,"CLASSIFICATION_TYPE":"U","NORAD_CAT_ID":34856,"ELEMENT_SET_NO":999,"REV_AT_EPOCH":90427,"BSTAR":0.0017835642,"MEAN_MOTION_DOT":0.00030525,"MEAN_MOTION_DDOT":0}]
